{
  "type": "FeatureCollection",
  "features": [
    {
      "type": "Feature",
      "properties": {
        "norad_id": 54259,
        "name": "EUTELSAT 10B",
        "group": "eutelsat",
        "lat": 0.04718779792866244,
        "lon": 170.28467877299752,
        "alt_km": 35782.48488315732,
        "timestamp": "2025-12-06T05:40:08.908179+00:00",
        "meta_object_name": "EUTELSAT 10B",
        "meta_object_id": "2022-157A",
        "meta_epoch": "2025-12-05T00:45:38.753856",
        "meta_mean_motion": 1.00267429,
        "meta_eccentricity": 0.00011529,
        "meta_inclination": 0.0622,
        "meta_ra_of_asc_node": 103.5891,
        "meta_arg_of_pericenter": 79.7033,
        "meta_mean_anomaly": 272.2132,
        "meta_ephemeris_type": 0,
        "meta_classification_type": "U",
        "meta_norad_cat_id": 54259,
        "meta_element_set_no": 999,
        "meta_rev_at_epoch": 1108,
        "meta_bstar": 0,
        "meta_mean_motion_dot": 8.1e-07,
        "meta_mean_motion_ddot": 0,
        "tle_line1": "1 54259U 22157A   25339.03169854  .00000081  00000+0  00000+0 0  9997",
        "tle_line2": "2 54259   0.0622 103.5891 0001152  79.7033 272.2132  1.00267429 11082"
      },
      "geometry": {
        "type": "Point",
        "coordinates": [
          170.28467877299752,
          0.04718779792866244
        ]
      }
    },
    {
      "type": "Feature",
      "properties": {
        "norad_id": 59346,
        "name": "EUTELSAT 36D",
        "group": "eutelsat",
        "lat": -0.024690993738014082,
        "lon": -163.85072809556968,
        "alt_km": 35787.15631104312,
        "timestamp": "2025-12-06T05:40:08.908190+00:00",
        "meta_object_name": "EUTELSAT 36D",
        "meta_object_id": "2024-059A",
        "meta_epoch": "2025-12-05T05:57:21.456864",
        "meta_mean_motion": 1.00269917,
        "meta_eccentricity": 5.918e-05,
        "meta_inclination": 0.022,
        "meta_ra_of_asc_node": 350.7928,
        "meta_arg_of_pericenter": 311.4823,
        "meta_mean_anomaly": 257.2279,
        "meta_ephemeris_type": 0,
        "meta_classification_type": "U",
        "meta_norad_cat_id": 59346,
        "meta_element_set_no": 999,
        "meta_rev_at_epoch": 620,
        "meta_bstar": 0,
        "meta_mean_motion_dot": 0,
        "meta_mean_motion_ddot": 0,
        "tle_line1": "1 59346U 24059A   25339.24816501  .00000000  00000+0  00000+0 0  9994",
        "tle_line2": "2 59346   0.0220 350.7928 0000591 311.4823 257.2279  1.00269917  6201"
      },
      "geometry": {
        "type": "Point",
        "coordinates": [
          -163.85072809556968,
          -0.024690993738014082
        ]
      }
    }
  ]
}